H1 CPF 01  gfz 2021 05 16 00  6361 tandemx   
H2 1003001  6202 36605    2021 05 16 00 59 42 2021 05 21 00 00 42   120 1 1  0 0 0
H9
10 0 59354  38862.000000  0   -1810380.957   2973274.389  -5951818.231
10 0 59354  38982.000000  0   -1956906.480   3733357.874  -5456277.479
10 0 59354  39102.000000  0   -2056706.947   4430788.641  -4865345.912
10 0 59354  39222.000000  0   -2109223.544   5052557.240  -4189267.609
10 0 59354  39342.000000  0   -2114931.388   5586940.675  -3439795.220
10 0 59354  39462.000000  0   -2075310.873   6023731.193  -2629993.511
10 0 59354  39582.000000  0   -1992797.656   6354441.808  -1774017.469
10 0 59354  39702.000000  0   -1870712.644   6572482.424   -886865.678
10 0 59354  39822.000000  0   -1713172.565   6673300.453     15884.012
10 0 59354  39942.000000  0   -1524983.175   6654485.549    918352.807
10 0 59354  40062.000000  0   -1311517.509   6515830.688   1804651.478
10 0 59354  40182.000000  0   -1078581.525   6259344.554   2659170.498
10 0 59354  40302.000000  0    -832271.889   5889220.252   3466862.047
10 0 59354  40422.000000  0    -578829.711   5411762.107   4213510.355
10 0 59354  40542.000000  0    -324494.016   4835271.592   4885987.410
10 0 59354  40662.000000  0     -75356.290   4169890.014   5472485.391
10 0 59354  40782.000000  0     162777.914   3427411.501   5962719.156
10 0 59354  40902.000000  0     384517.229   2621065.892   6348103.879
10 0 59354  41022.000000  0     585001.043   1765275.986   6621899.057
10 0 59354  41142.000000  0     760001.923    875395.393   6779320.727
10 0 59354  41262.000000  0     906011.813    -32568.971   6817619.163
10 0 59354  41382.000000  0    1020310.895   -942243.574   6736124.276
10 0 59354  41502.000000  0    1101017.916  -1837183.408   6536257.609
10 0 59354  41622.000000  0    1147121.260  -2701169.009   6221509.490
10 0 59354  41742.000000  0    1158490.215  -3518502.081   5797382.036
10 0 59354  41862.000000  0    1135865.541  -4274293.163   5271296.628
10 0 59354  41982.000000  0    1080831.637  -4954735.575   4652469.627
10 0 59354  42102.000000  0     995769.572  -5547364.251   3951757.888
10 0 59354  42222.000000  0     883791.592  -6041294.399   3181472.195
10 0 59354  42342.000000  0     748658.638  -6427431.444   2355161.299
10 0 59354  42462.000000  0     594681.576  -6698647.796   1487371.952
10 0 59354  42582.000000  0     426609.592  -6849922.824    593389.027
10 0 59354  42702.000000  0     249508.002  -6878443.651   -311041.334
10 0 59354  42822.000000  0      68627.933  -6783658.634  -1210000.065
10 0 59354  42942.000000  0    -110726.928  -6567283.663  -2087684.423
10 0 59354  43062.000000  0    -283333.607  -6233264.159  -2928692.284
10 0 59354  43182.000000  0    -444180.266  -5787693.976  -3718297.274
10 0 59354  43302.000000  0    -588590.638  -5238692.137  -4442708.957
10 0 59354  43422.000000  0    -712339.000  -4596241.179  -5089311.116
10 0 59354  43542.000000  0    -811753.255  -3871993.873  -5646874.945
10 0 59354  43662.000000  0    -883803.841  -3079052.226  -6105745.077
10 0 59354  43782.000000  0    -926176.841  -2231723.860  -6457996.067
10 0 59354  43902.000000  0    -937330.314  -1345260.819  -6697557.553
10 0 59354  44022.000000  0    -916533.260   -435586.521  -6820308.311
10 0 59354  44142.000000  0    -863886.342    480986.217  -6824139.456
10 0 59354  44262.000000  0    -780323.752   1388040.643  -6708985.532
10 0 59354  44382.000000  0    -667597.154   2269342.286  -6476825.481
10 0 59354  44502.000000  0    -528241.718   3109122.182  -6131652.960
10 0 59354  44622.000000  0    -365523.871   3892355.297  -5679416.355
10 0 59354  44742.000000  0    -183371.611   4605028.535  -5127926.036
10 0 59354  44862.000000  0      13710.968   5234393.959  -4486731.279
10 0 59354  44982.000000  0     220743.797   5769204.155  -3766965.873
10 0 59354  45102.000000  0     432384.181   6199923.082  -2981163.472
10 0 59354  45222.000000  0     643051.013   6518907.912  -2143045.789
10 0 59354  45342.000000  0     847057.328   6720557.897  -1267285.664
10 0 59354  45462.000000  0    1038748.070   6801424.886   -369248.614
10 0 59354  45582.000000  0    1212639.809   6760282.038    535281.886
10 0 59354  45702.000000  0    1363558.447   6598147.267   1430389.438
10 0 59354  45822.000000  0    1486770.509   6318262.027   2300312.574
10 0 59354  45942.000000  0    1578105.603   5926026.552   3129730.338
10 0 59354  46062.000000  0    1634067.286   5428892.327   3904039.842
10 0 59354  46182.000000  0    1651928.740   4836212.881   4609619.410
10 0 59354  46302.000000  0    1629811.934   4159058.017   5234072.238
10 0 59354  46422.000000  0    1566745.592   3409994.826   5766442.533
10 0 59354  46542.000000  0    1462704.415   2602847.229   6197402.351
10 0 59354  46662.000000  0    1318627.302   1752434.614   6519410.803
10 0 59354  46782.000000  0    1136414.585    874294.527   6726840.260
10 0 59354  46902.000000  0     918904.329    -15603.534   6816067.754
10 0 59354  47022.000000  0     669828.339   -901147.122   6785534.710
10 0 59354  47142.000000  0     393747.944  -1766372.695   6635773.896
10 0 59354  47262.000000  0      95970.343  -2595753.337   6369400.705
10 0 59354  47382.000000  0    -217552.906  -3374478.781   5991069.945
10 0 59354  47502.000000  0    -540342.405  -4088720.905   5507396.686
10 0 59354  47622.000000  0    -865520.990  -4725880.731   4926846.989
10 0 59354  47742.000000  0   -1185956.706  -5274817.498   4259598.712
10 0 59354  47862.000000  0   -1494416.208  -5726054.067   3517367.799
10 0 59354  47982.000000  0   -1783723.714  -6071950.147   2713203.479
10 0 59354  48102.000000  0   -2046922.964  -6306840.395   1861258.448
10 0 59354  48222.000000  0   -2277438.346  -6427134.748    976535.934
10 0 59354  48342.000000  0   -2469229.384  -6431377.224     74618.627
10 0 59354  48462.000000  0   -2616935.659  -6320262.013   -828614.101
10 0 59354  48582.000000  0   -2716008.547  -6096606.011  -1717274.655
10 0 59354  48702.000000  0   -2762826.728  -5765278.661  -2575754.876
10 0 59354  48822.000000  0   -2754792.313  -5333091.109  -3389006.989
10 0 59354  48942.000000  0   -2690404.730  -4808647.130  -4142811.130
10 0 59354  49062.000000  0   -2569311.051  -4202161.300  -4824022.833
10 0 59354  49182.000000  0   -2392332.592  -3525250.625  -5420797.056
10 0 59354  49302.000000  0   -2161468.008  -2790704.541  -5922786.255
10 0 59354  49422.000000  0   -1879872.573  -2012237.900  -6321310.282
10 0 59354  49542.000000  0   -1551813.573  -1204232.024  -6609495.256
10 0 59354  49662.000000  0   -1182604.534   -381469.753  -6782380.240
10 0 59354  49782.000000  0    -778519.764    441130.887  -6836992.649
10 0 59354  49902.000000  0    -346689.013   1248780.356  -6772393.548
10 0 59354  50022.000000  0     105025.237   2027076.440  -6589691.658
10 0 59354  50142.000000  0     568165.963   2762254.488  -6292027.783
10 0 59354  50262.000000  0    1033836.575   3441427.757  -5884528.151
10 0 59354  50382.000000  0    1492867.626   4052812.098  -5374224.086
10 0 59354  50502.000000  0    1935993.286   4585931.824  -4769942.168
10 0 59354  50622.000000  0    2354035.798   5031805.206  -4082163.328
10 0 59354  50742.000000  0    2738093.396   5383103.960  -3322850.316
10 0 59354  50862.000000  0    3079728.307   5634283.328  -2505247.671
10 0 59354  50982.000000  0    3371151.366   5781679.943  -1643654.897
10 0 59354  51102.000000  0    3605397.812   5823573.631   -753176.537
10 0 59354  51222.000000  0    3776489.227   5760211.002    150546.532
10 0 59354  51342.000000  0    3879577.481   5593789.377   1051618.301
10 0 59354  51462.000000  0    3911067.351   5328400.697   1934174.920
10 0 59354  51582.000000  0    3868714.468   4969938.524   2782671.583
10 0 59354  51702.000000  0    3751695.630   4525969.238   3582166.500
10 0 59354  51822.000000  0    3560648.458   4005567.298   4318589.292
10 0 59354  51942.000000  0    3297683.618   3419126.034   4978992.325
10 0 59354  52062.000000  0    2966362.355   2778143.912   5551781.320
10 0 59354  52182.000000  0    2571646.168   2094991.683   6026914.399
10 0 59354  52302.000000  0    2119821.108   1382669.279   6396073.197
10 0 59354  52422.000000  0    1618394.251    654554.421   6652802.949
10 0 59354  52542.000000  0    1075965.947    -75849.398   6792618.444
10 0 59354  52662.000000  0     502081.042   -795162.116   6813078.539
10 0 59354  52782.000000  0     -92939.524  -1490372.765   6713826.859
10 0 59354  52902.000000  0    -698184.585  -2149074.644   6496597.122
10 0 59354  53022.000000  0   -1302352.542  -2759686.960   6165183.551
10 0 59354  53142.000000  0   -1893959.995  -3311658.535   5725377.577
10 0 59354  53262.000000  0   -2461558.610  -3795652.471   5184874.099
10 0 59354  53382.000000  0   -2993959.006  -4203709.324   4553144.571
10 0 59354  53502.000000  0   -3480455.542  -4529383.897   3841275.664
10 0 59354  53622.000000  0   -3911044.808  -4767852.263   3061776.814
10 0 59354  53742.000000  0   -4276633.523  -4915987.539   2228361.062
10 0 59354  53862.000000  0   -4569233.063  -4972402.742   1355701.817
10 0 59354  53982.000000  0   -4782134.741  -4937457.834    459169.080
10 0 59354  54102.000000  0   -4910061.051  -4813231.235   -445448.500
10 0 59354  54222.000000  0   -4949289.262  -4603456.472  -1342230.637
10 0 59354  54342.000000  0   -4897743.116  -4313424.804  -2215415.433
10 0 59354  54462.000000  0   -4755049.975  -3949856.030  -3049684.280
10 0 59354  54582.000000  0   -4522563.130  -3520742.549  -3830434.567
10 0 59354  54702.000000  0   -4203349.983  -3035171.697  -4544035.825
10 0 59354  54822.000000  0   -3802146.595  -2503130.106  -5178064.969
10 0 59354  54942.000000  0   -3325280.074  -1935295.342  -5721515.950
10 0 59354  55062.000000  0   -2780561.933  -1342819.973  -6164981.482
10 0 59354  55182.000000  0   -2177154.596   -737112.213  -6500805.267
10 0 59354  55302.000000  0   -1525413.110   -129617.884  -6723202.471
99
